AL MUNTHER              
1 63240U 25052AG  26068.64540749  .00017933  00000+0  65015-3 0  9992
2 63240  97.4001 323.9152 0008027 130.7043 229.4895 15.28381521 54798
STARLINK-34319          
1 64268U 25120N   26068.53918387  .00030327  00000+0  10320-2 0  9994
2 64268  53.1585 117.3485 0001269  80.5476 279.5668 15.30195371 43894
